start=new Date('2022-05-27T00:00:00.000Z').valueOf();
sats=[{"SITE":"AFETR","MEAN_MOTION_DOT":"0.00001309","GP_ID":"204589595","SEMIMAJOR_AXIS":"6925.349","ELEMENT_SET_NO":"999","TIME_SYSTEM":"UTC","MEAN_ELEMENT_THEORY":"SGP4","OBJECT_ID":"2021-036AJ","NORAD_CAT_ID":"48308","ECCENTRICITY":"0.00018880","APOAPSIS":"548.521","BSTAR":"0.00010678000000","MEAN_MOTION_DDOT":"0.0000000000000","FILE":"3465646","COUNTRY_CODE":"US","PERIAPSIS":"545.906","DECAY_DATE":null,"EPOCH":"2022-05-26T10:25:08.933088","TLE_LINE2":"2 48308  53.0534 181.2954 0001888  49.9049 310.2105 15.06399984 59689","MEAN_MOTION":"15.06399984","INCLINATION":"53.0534","CLASSIFICATION_TYPE":"U","LAUNCH_DATE":"2021-04-29","REV_AT_EPOCH":"5968","RCS_SIZE":"LARGE","TLE_LINE1":"1 48308U 21036AJ  22146.43413117  .00001309  00000-0  10678-3 0  9992","ARG_OF_PERICENTER":"49.9049","REF_FRAME":"TEME","CENTER_NAME":"EARTH","PERIOD":"95.592","OBJECT_NAME":"STARLINK-2532","MEAN_ANOMALY":"310.2105","RA_OF_ASC_NODE":"181.2954","EPHEMERIS_TYPE":"0","OBJECT_TYPE":"PAYLOAD"},{"GP_ID":"204626059","SEMIMAJOR_AXIS":"6925.351","SITE":"AFETR","MEAN_MOTION_DOT":"0.00002036","OBJECT_ID":"2021-036AK","MEAN_ELEMENT_THEORY":"SGP4","ELEMENT_SET_NO":"999","TIME_SYSTEM":"UTC","ECCENTRICITY":"0.00017330","APOAPSIS":"548.416","NORAD_CAT_ID":"48309","FILE":"3466271","COUNTRY_CODE":"US","PERIAPSIS":"546.015","BSTAR":"0.00015555000000","MEAN_MOTION_DDOT":"0.0000000000000","MEAN_MOTION":"15.06399329","TLE_LINE2":"2 48309  53.0541 179.5335 0001733  56.9021 303.2135 15.06399329 59743","DECAY_DATE":null,"EPOCH":"2022-05-26T19:53:04.817472","REV_AT_EPOCH":"5974","LAUNCH_DATE":"2021-04-29","CLASSIFICATION_TYPE":"U","INCLINATION":"53.0541","PERIOD":"95.592","CENTER_NAME":"EARTH","RCS_SIZE":"LARGE","TLE_LINE1":"1 48309U 21036AK  22146.82852798  .00002036  00000-0  15555-3 0  9995","ARG_OF_PERICENTER":"56.9021","REF_FRAME":"TEME","EPHEMERIS_TYPE":"0","OBJECT_TYPE":"PAYLOAD","MEAN_ANOMALY":"303.2135","RA_OF_ASC_NODE":"179.5335","OBJECT_NAME":"STARLINK-2517"},{"APOAPSIS":"548.301","ECCENTRICITY":"0.00016060","NORAD_CAT_ID":"48310","PERIAPSIS":"546.077","COUNTRY_CODE":"US","FILE":"3466271","MEAN_MOTION_DDOT":"0.0000000000000","BSTAR":"0.00005082300000","MEAN_MOTION_DOT":"0.00000476","SITE":"AFETR","SEMIMAJOR_AXIS":"6925.324","GP_ID":"204626309","OBJECT_ID":"2021-036AL","TIME_SYSTEM":"UTC","ELEMENT_SET_NO":"999","MEAN_ELEMENT_THEORY":"SGP4","CENTER_NAME":"EARTH","PERIOD":"95.592","RCS_SIZE":"LARGE","TLE_LINE1":"1 48310U 21036AL  22146.82483868  .00000476  00000-0  50823-4 0  9999","ARG_OF_PERICENTER":"56.9098","REF_FRAME":"TEME","RA_OF_ASC_NODE":"179.5417","MEAN_ANOMALY":"303.2045","OBJECT_TYPE":"PAYLOAD","EPHEMERIS_TYPE":"0","OBJECT_NAME":"STARLINK-2536","TLE_LINE2":"2 48310  53.0556 179.5417 0001606  56.9098 303.2045 15.06407926 59748","MEAN_MOTION":"15.06407926","EPOCH":"2022-05-26T19:47:46.061952","DECAY_DATE":null,"LAUNCH_DATE":"2021-04-29","REV_AT_EPOCH":"5974","CLASSIFICATION_TYPE":"U","INCLINATION":"53.0556"},{"OBJECT_ID":"2021-036AM","MEAN_ELEMENT_THEORY":"SGP4","ELEMENT_SET_NO":"999","TIME_SYSTEM":"UTC","GP_ID":"204627560","SEMIMAJOR_AXIS":"6925.357","SITE":"AFETR","MEAN_MOTION_DOT":"0.00001928","FILE":"3466271","PERIAPSIS":"546.132","COUNTRY_CODE":"US","BSTAR":"0.00014831000000","MEAN_MOTION_DDOT":"0.0000000000000","APOAPSIS":"548.312","ECCENTRICITY":"0.00015740","NORAD_CAT_ID":"48311","REV_AT_EPOCH":"5974","LAUNCH_DATE":"2021-04-29","CLASSIFICATION_TYPE":"U","INCLINATION":"53.0533","MEAN_MOTION":"15.06397228","TLE_LINE2":"2 48311  53.0533 179.5578 0001574  58.8756 301.2387 15.06397228 59748","DECAY_DATE":null,"EPOCH":"2022-05-26T19:42:28.780416","EPHEMERIS_TYPE":"0","OBJECT_TYPE":"PAYLOAD","MEAN_ANOMALY":"301.2387","RA_OF_ASC_NODE":"179.5578","OBJECT_NAME":"STARLINK-2534","PERIOD":"95.592","CENTER_NAME":"EARTH","ARG_OF_PERICENTER":"58.8756","TLE_LINE1":"1 48311U 21036AM  22146.82116644  .00001928  00000-0  14831-3 0  9996","RCS_SIZE":"LARGE","REF_FRAME":"TEME"},{"LAUNCH_DATE":"2021-04-29","REV_AT_EPOCH":"5974","CLASSIFICATION_TYPE":"U","INCLINATION":"53.0539","TLE_LINE2":"2 48312  53.0539 179.5789 0002002  48.3910 311.7250 15.06392043 59747","MEAN_MOTION":"15.06392043","DECAY_DATE":null,"EPOCH":"2022-05-26T19:37:10.278048","MEAN_ANOMALY":"311.7250","RA_OF_ASC_NODE":"179.5789","EPHEMERIS_TYPE":"0","OBJECT_TYPE":"PAYLOAD","OBJECT_NAME":"STARLINK-2061","CENTER_NAME":"EARTH","PERIOD":"95.593","ARG_OF_PERICENTER":"48.3910","TLE_LINE1":"1 48312U 21036AN  22146.81748007  .00001608  00000-0  12687-3 0  9992","RCS_SIZE":"LARGE","REF_FRAME":"TEME","OBJECT_ID":"2021-036AN","ELEMENT_SET_NO":"999","TIME_SYSTEM":"UTC","MEAN_ELEMENT_THEORY":"SGP4","SITE":"AFETR","MEAN_MOTION_DOT":"0.00001608","GP_ID":"204627810","SEMIMAJOR_AXIS":"6925.373","FILE":"3466271","COUNTRY_CODE":"US","PERIAPSIS":"545.851","BSTAR":"0.00012687000000","MEAN_MOTION_DDOT":"0.0000000000000","APOAPSIS":"548.624","ECCENTRICITY":"0.00020020","NORAD_CAT_ID":"48312"},{"OBJECT_ID":"2021-036AP","ELEMENT_SET_NO":"999","TIME_SYSTEM":"UTC","MEAN_ELEMENT_THEORY":"SGP4","SITE":"AFETR","MEAN_MOTION_DOT":"0.00001410","SEMIMAJOR_AXIS":"6925.334","GP_ID":"204626559","FILE":"3466271","PERIAPSIS":"545.926","COUNTRY_CODE":"US","BSTAR":"0.00011356000000","MEAN_MOTION_DDOT":"0.0000000000000","APOAPSIS":"548.472","ECCENTRICITY":"0.00018380","NORAD_CAT_ID":"48313","LAUNCH_DATE":"2021-04-29","REV_AT_EPOCH":"5973","CLASSIFICATION_TYPE":"U","INCLINATION":"53.0531","TLE_LINE2":"2 48313  53.0531 179.5760 0001838  52.3403 307.7752 15.06404670 59738","MEAN_MOTION":"15.06404670","DECAY_DATE":null,"EPOCH":"2022-05-26T19:31:50.884032","MEAN_ANOMALY":"307.7752","RA_OF_ASC_NODE":"179.5760","EPHEMERIS_TYPE":"0","OBJECT_TYPE":"PAYLOAD","OBJECT_NAME":"STARLINK-2541","CENTER_NAME":"EARTH","PERIOD":"95.592","RCS_SIZE":"LARGE","TLE_LINE1":"1 48313U 21036AP  22146.81378338  .00001410  00000-0  11356-3 0  9992","ARG_OF_PERICENTER":"52.3403","REF_FRAME":"TEME"},{"REV_AT_EPOCH":"5973","LAUNCH_DATE":"2021-04-29","CLASSIFICATION_TYPE":"U","INCLINATION":"53.0543","MEAN_MOTION":"15.06394147","TLE_LINE2":"2 48314  53.0543 179.6159 0001654  58.6546 301.4605 15.06394147 59733","DECAY_DATE":null,"EPOCH":"2022-05-26T19:26:32.624448","EPHEMERIS_TYPE":"0","OBJECT_TYPE":"PAYLOAD","MEAN_ANOMALY":"301.4605","RA_OF_ASC_NODE":"179.6159","OBJECT_NAME":"STARLINK-2549","PERIOD":"95.593","CENTER_NAME":"EARTH","RCS_SIZE":"LARGE","TLE_LINE1":"1 48314U 21036AQ  22146.81009982  .00000287  00000-0  38165-4 0  9998","REF_FRAME":"TEME","ARG_OF_PERICENTER":"58.6546","OBJECT_ID":"2021-036AQ","MEAN_ELEMENT_THEORY":"SGP4","ELEMENT_SET_NO":"999","TIME_SYSTEM":"UTC","GP_ID":"204626809","SEMIMAJOR_AXIS":"6925.366","SITE":"AFETR","MEAN_MOTION_DOT":"0.00000287","FILE":"3466271","PERIAPSIS":"546.086","COUNTRY_CODE":"US","BSTAR":"0.00003816500000","MEAN_MOTION_DDOT":"0.0000000000000","APOAPSIS":"548.377","ECCENTRICITY":"0.00016540","NORAD_CAT_ID":"48314"},{"RA_OF_ASC_NODE":"179.6159","MEAN_ANOMALY":"296.2933","OBJECT_TYPE":"PAYLOAD","EPHEMERIS_TYPE":"0","OBJECT_NAME":"STARLINK-2506","CENTER_NAME":"EARTH","PERIOD":"95.592","REF_FRAME":"TEME","TLE_LINE1":"1 48315U 21036AR  22146.80546610  .00000499  00000-0  52430-4 0  9998","RCS_SIZE":"LARGE","ARG_OF_PERICENTER":"63.8249","LAUNCH_DATE":"2021-04-29","REV_AT_EPOCH":"5973","INCLINATION":"53.0526","CLASSIFICATION_TYPE":"U","TLE_LINE2":"2 48315  53.0526 179.6159 0001879  63.8249 296.2933 15.06399029 59731","MEAN_MOTION":"15.06399029","EPOCH":"2022-05-26T19:19:52.271040","DECAY_DATE":null,"COUNTRY_CODE":"US","PERIAPSIS":"545.915","FILE":"3466271","MEAN_MOTION_DDOT":"0.0000000000000","BSTAR":"0.00005243000000","ECCENTRICITY":"0.00018790","APOAPSIS":"548.518","NORAD_CAT_ID":"48315","OBJECT_ID":"2021-036AR","TIME_SYSTEM":"UTC","ELEMENT_SET_NO":"999","MEAN_ELEMENT_THEORY":"SGP4","MEAN_MOTION_DOT":"0.00000499","SITE":"AFETR","SEMIMAJOR_AXIS":"6925.352","GP_ID":"204627061"},{"PERIOD":"95.592","CENTER_NAME":"EARTH","TLE_LINE1":"1 48316U 21036AS  22146.80273109  .00001227  00000-0  10130-3 0  9999","ARG_OF_PERICENTER":"52.4267","RCS_SIZE":"LARGE","REF_FRAME":"TEME","EPHEMERIS_TYPE":"0","OBJECT_TYPE":"PAYLOAD","MEAN_ANOMALY":"307.6868","RA_OF_ASC_NODE":"179.6399","OBJECT_NAME":"STARLINK-2507","MEAN_MOTION":"15.06394606","TLE_LINE2":"2 48316  53.0534 179.6399 0001616  52.4267 307.6868 15.06394606 59730","DECAY_DATE":null,"EPOCH":"2022-05-26T19:15:55.966176","REV_AT_EPOCH":"5973","LAUNCH_DATE":"2021-04-29","INCLINATION":"53.0534","CLASSIFICATION_TYPE":"U","APOAPSIS":"548.349","ECCENTRICITY":"0.00016160","NORAD_CAT_ID":"48316","FILE":"3466271","PERIAPSIS":"546.111","COUNTRY_CODE":"US","BSTAR":"0.00010130000000","MEAN_MOTION_DDOT":"0.0000000000000","GP_ID":"204627312","SEMIMAJOR_AXIS":"6925.365","SITE":"AFETR","MEAN_MOTION_DOT":"0.00001227","OBJECT_ID":"2021-036AS","MEAN_ELEMENT_THEORY":"SGP4","ELEMENT_SET_NO":"999","TIME_SYSTEM":"UTC"},{"ELEMENT_SET_NO":"999","TIME_SYSTEM":"UTC","MEAN_ELEMENT_THEORY":"SGP4","OBJECT_ID":"2021-036AT","SITE":"AFETR","MEAN_MOTION_DOT":"0.00003040","GP_ID":"204626060","SEMIMAJOR_AXIS":"6925.348","BSTAR":"0.00022290000000","MEAN_MOTION_DDOT":"0.0000000000000","FILE":"3466271","PERIAPSIS":"545.900","COUNTRY_CODE":"US","NORAD_CAT_ID":"48317","ECCENTRICITY":"0.00018970","APOAPSIS":"548.527","INCLINATION":"53.0519","CLASSIFICATION_TYPE":"U","LAUNCH_DATE":"2021-04-29","REV_AT_EPOCH":"5973","DECAY_DATE":null,"EPOCH":"2022-05-26T19:10:37.357536","TLE_LINE2":"2 48317  53.0519 179.6629 0001897  54.3205 305.7960 15.06400058 59735","MEAN_MOTION":"15.06400058","OBJECT_NAME":"STARLINK-2513","MEAN_ANOMALY":"305.7960","RA_OF_ASC_NODE":"179.6629","EPHEMERIS_TYPE":"0","OBJECT_TYPE":"PAYLOAD","TLE_LINE1":"1 48317U 21036AT  22146.79904349  .00003040  00000-0  22290-3 0  9990","ARG_OF_PERICENTER":"54.3205","RCS_SIZE":"LARGE","REF_FRAME":"TEME","CENTER_NAME":"EARTH","PERIOD":"95.592"}];
